43257,IRIDIUM 150,2018,100.4,860.0,+,86.39,Active,1,LEO,USA,USA,Commercial/Government,Communications,Falcon,1 43257U 18030J   24095.20550364  .00000057  00000+0  13348-4 0  9992,2 43257  86.3917 266.4402 0002294  85.5157 274.6301 14.34217631314945,14.34217631,0.0002294,LEO
43258,IRIDIUM 143,2018,100.4,860.0,+,86.39,Active,1,LEO,USA,USA,Commercial/Government,Communications,Falcon,1 43258U 18030K   24094.90740022  .00000115  00000+0  33910-4 0  9993,2 43258  86.3921 266.6258 0002123  80.5060 279.6375 14.34218470314815,14.3421847,0.0002123,LEO
43478,IRIDIUM 161,2018,99.77,860.0,+,86.45,Active,1,LEO,USA,USA,Commercial/Government,Communications,Falcon,1 43478U 18047C   24095.20857044  .00000523  00000+0  14943-3 0  9999,2 43478  86.4467  64.4627 0002263  88.8844 271.2616 14.43273738309172,14.43273738,0.0002263,LEO
43479,IRIDIUM 152,2018,100.4,860.0,+,86.39,Active,1,LEO,USA,USA,Commercial/Government,Communications,Falcon,1 43479U 18047D   24095.43826208  .00000393  00000+0  13321-3 0  9997,2 43479  86.3942  64.2258 0002302  85.6661 274.4798 14.34214943307294,14.34214943,0.0002302,LEO
43480,IRIDIUM 147,2018,100.4,860.0,+,86.39,Active,1,LEO,USA,USA,Commercial/Government,Communications,Falcon,1 43480U 18047E   24094.88645875  .00000428  00000+0  14582-3 0  9995,2 43480  86.3943  64.4480 0002285  93.0014 267.1444 14.34219872307205,14.34219872,0.0002285,LEO
43481,IRIDIUM 110,2018,100.4,860.0,+,86.39,Active,1,LEO,USA,USA,Commercial/Government,Communications,Falcon,1 43481U 18047F   24094.89280000  .00000326  00000+0  10931-3 0  9993,2 43481  86.3945  64.5163 0002540  94.7531 265.3955 14.34216457307194,14.34216457,0.000254,LEO
43482,IRIDIUM 162,2018,99.77,860.0,+,86.45,Active,1,LEO,USA,USA,Commercial/Government,Communications,Falcon,1 43482U 18047G   24095.20227795  .00000420  00000+0  11883-3 0  9994,2 43482  86.4466  64.3663 0002353  94.1957 265.9513 14.43271735309160,14.43271735,0.0002353,LEO
43569,IRIDIUM 160,2018,100.4,860.0,+,86.4,Active,1,LEO,USA,USA,Commercial/Government,Communications,Falcon,1 43569U 18061A   24095.53633078  .00000353  00000+0  11906-3 0  9998,2 43569  86.4009  32.6155 0001897  93.3127 266.8286 14.34217155298187,14.34217155,0.0001897,LEO
